ONEWEB-0080             
1 45426U 20020C   25194.96972354 -.00000607  00000+0 -17497-2 0  9995
2 45426  87.8827  88.4759 0002233  78.3783 281.7596 13.11417618258376
ONEWEB-0090             
1 45427U 20020D   25194.45515192  .00000423  00000+0  11578-2 0  9991
2 45427  87.8832  88.5801 0001879  76.4593 283.6744 13.11419320258272
ONEWEB-0061             
1 45428U 20020E   25194.94501068 -.00000001  00000+0 -39187-4 0  9995
2 45428  87.8824  88.4641 0001905  79.0381 281.0961 13.11415648258293
ONEWEB-0081             
1 45429U 20020F   25194.69762181  .00000550  00000+0  15154-2 0  9996
2 45429  87.8827  88.5339 0001902  85.2357 274.8988 13.11414388258379
ONEWEB-0069             
1 45430U 20020G   25194.68659252  .00000451  00000+0  12361-2 0  9998
2 45430  87.8835  88.5272 0001804  81.1556 278.9776 13.11417030258303
ONEWEB-0031             
1 45431U 20020H   25194.96379098 -.00000687  00000+0 -19734-2 0  9991
2 45431  87.8832  88.5022 0001967  72.0821 288.0521 13.11416613258326
ONEWEB-0027             
1 45432U 20020J   25194.93512233  .00001264  00000+0  32209-2 0  9991
2 45432  87.9045  73.1747 0001674  71.2400 288.8913 13.17661130261810
ONEWEB-0064             
1 45433U 20020K   25194.65690625 -.00000626  00000+0 -18031-2 0  9993
2 45433  87.8831  88.5557 0001908  72.5460 287.5876 13.11416533258316
